0 ONEWEB-0458
1 51648U 22012AC  24160.50652486  .00000592  00000-0  16599-2 0  9998
2 51648  87.8948 183.1439 0002102  95.9719 264.1648 13.10374507113865
0 ONEWEB-0456
1 51646U 22012AA  24160.81361472  .00000565  00000-0  15832-2 0  9991
2 51646  87.8936 183.0464 0002308  85.7453 274.3938 13.10374898112640
0 ONEWEB-0452
1 51644U 22012Y   24161.41090868  .00000058  00000-0  11681-3 0  9990
2 51644  87.9161 152.7542 0001949  98.2927 261.8425 13.17647183117817
0 ONEWEB-0451
1 51643U 22012X   24160.95686970  .00000047  00000-0  87739-4 0  9998
2 51643  87.9156 152.8048 0002109  93.1764 266.9609 13.17647126116449
0 ONEWEB-0449
1 51642U 22012W   24161.49086028 -.00000053  00000-0 -18718-3 0  9994
2 51642  87.8943 182.9403 0001833  97.5807 262.5528 13.10376288113999
0 ONEWEB-0448
1 51641U 22012V   24161.10409909 -.00000178  00000-0 -54636-3 0  9995
2 51641  87.8947 183.0211 0002177  93.9267 266.2110 13.10377317113928
0 ONEWEB-0446
1 51640U 22012U   24160.79367072 -.00000389  00000-0 -11493-2 0  9999
2 51640  87.8944 183.0815 0001868  83.4282 276.7058 13.10376533112623
